[{"OBJECT_NAME":"GEESAT-5 03","OBJECT_ID":"2025-201C","EPOCH":"2026-03-09T15:48:23.402016","MEAN_MOTION":14.83793189,"ECCENTRICITY":0.00114449,"INCLINATION":49.9855,"RA_OF_ASC_NODE":140.9561,"ARG_OF_PERICENTER":240.5429,"MEAN_ANOMALY":119.4368,"EPHEMERIS_TYPE":0,"CLASSIFICATION_TYPE":"U","NORAD_CAT_ID":65552,"ELEMENT_SET_NO":999,"REV_AT_EPOCH":2701,"BSTAR":0.00035775974,"MEAN_MOTION_DOT":2.771e-5,"MEAN_MOTION_DDOT":0},{"OBJECT_NAME":"SL-14 R\/B","OBJECT_ID":"1988-093B","EPOCH":"2026-03-09T22:21:05.482944","MEAN_MOTION":14.85656883,"ECCENTRICITY":0.00217506,"INCLINATION":82.5306,"RA_OF_ASC_NODE":41.8167,"ARG_OF_PERICENTER":40.7424,"MEAN_ANOMALY":18.5334,"EPHEMERIS_TYPE":0,"CLASSIFICATION_TYPE":"U","NORAD_CAT_ID":19574,"ELEMENT_SET_NO":999,"REV_AT_EPOCH":105,"BSTAR":8.475997e-5,"MEAN_MOTION_DOT":7.62e-6,"MEAN_MOTION_DDOT":0}]
